{
  "type": "FeatureCollection",
  "features": [
    {
      "type": "Feature",
      "properties": {
        "norad_id": 24946,
        "name": "IRIDIUM 33",
        "group": "iridium-33-debris",
        "lat": -76.05189575687425,
        "lon": -100.76166850578251,
        "alt_km": 781.9010000413809,
        "timestamp": "2025-12-21T14:40:48.302973+00:00",
        "meta_object_name": "IRIDIUM 33",
        "meta_object_id": "1997-051C",
        "meta_epoch": "2025-12-21T05:07:17.080032",
        "meta_mean_motion": 14.35042893,
        "meta_eccentricity": 0.00080457,
        "meta_inclination": 86.3863,
        "meta_ra_of_asc_node": 64.6648,
        "meta_arg_of_pericenter": 172.1605,
        "meta_mean_anomaly": 187.9719,
        "meta_ephemeris_type": 0,
        "meta_classification_type": "U",
        "meta_norad_cat_id": 24946,
        "meta_element_set_no": 999,
        "meta_rev_at_epoch": 47956,
        "meta_bstar": 9.3365932e-05,
        "meta_mean_motion_dot": 2.86e-06,
        "meta_mean_motion_ddot": 0,
        "tle_line1": "1 24946U 97051C   25355.21339213  .00000286  00000+0  93366-4 0  9997",
        "tle_line2": "2 24946  86.3863  64.6648 0008045 172.1605 187.9719 14.35042893479566"
      },
      "geometry": {
        "type": "Point",
        "coordinates": [
          -100.76166850578251,
          -76.05189575687425
        ]
      }
    },
    {
      "type": "Feature",
      "properties": {
        "norad_id": 33773,
        "name": "IRIDIUM 33 DEB",
        "group": "iridium-33-debris",
        "lat": 63.99052550837894,
        "lon": -130.5828964284835,
        "alt_km": 732.2339290158952,
        "timestamp": "2025-12-21T14:40:48.303018+00:00",
        "meta_object_name": "IRIDIUM 33 DEB",
        "meta_object_id": "1997-051L",
        "meta_epoch": "2025-12-21T05:49:35.518944",
        "meta_mean_motion": 14.43273713,
        "meta_eccentricity": 0.00131162,
        "meta_inclination": 86.4002,
        "meta_ra_of_asc_node": 56.9862,
        "meta_arg_of_pericenter": 121.8026,
        "meta_mean_anomaly": 238.4454,
        "meta_ephemeris_type": 0,
        "meta_classification_type": "U",
        "meta_norad_cat_id": 33773,
        "meta_element_set_no": 999,
        "meta_rev_at_epoch": 88470,
        "meta_bstar": 0.00023360251,
        "meta_mean_motion_dot": 8.07e-06,
        "meta_mean_motion_ddot": 0,
        "tle_line1": "1 33773U 97051L   25355.24277221  .00000807  00000+0  23360-3 0  9993",
        "tle_line2": "2 33773  86.4002  56.9862 0013116 121.8026 238.4454 14.43273713884705"
      },
      "geometry": {
        "type": "Point",
        "coordinates": [
          -130.5828964284835,
          63.99052550837894
        ]
      }
    },
    {
      "type": "Feature",
      "properties": {
        "norad_id": 33775,
        "name": "IRIDIUM 33 DEB",
        "group": "iridium-33-debris",
        "lat": 37.56212134759105,
        "lon": -137.03831492489925,
        "alt_km": 740.5322431166132,
        "timestamp": "2025-12-21T14:40:48.303036+00:00",
        "meta_object_name": "IRIDIUM 33 DEB",
        "meta_object_id": "1997-051N",
        "meta_epoch": "2025-12-21T04:16:38.261568",
        "meta_mean_motion": 14.41484651,
        "meta_eccentricity": 0.0015071,
        "meta_inclination": 86.3627,
        "meta_ra_of_asc_node": 45.9507,
        "meta_arg_of_pericenter": 129.3749,
        "meta_mean_anomaly": 284.9532,
        "meta_ephemeris_type": 0,
        "meta_classification_type": "U",
        "meta_norad_cat_id": 33775,
        "meta_element_set_no": 999,
        "meta_rev_at_epoch": 88262,
        "meta_bstar": 0.00021778892,
        "meta_mean_motion_dot": 7.27e-06,
        "meta_mean_motion_ddot": 0,
        "tle_line1": "1 33775U 97051N   25355.17822062  .00000727  00000+0  21779-3 0  9999",
        "tle_line2": "2 33775  86.3627  45.9507 0015071 129.3749 284.9532 14.41484651882625"
      },
      "geometry": {
        "type": "Point",
        "coordinates": [
          -137.03831492489925,
          37.56212134759105
        ]
      }
    },
    {
      "type": "Feature",
      "properties": {
        "norad_id": 33776,
        "name": "IRIDIUM 33 DEB",
        "group": "iridium-33-debris",
        "lat": -86.23495629746043,
        "lon": -30.051160035208696,
        "alt_km": 774.9253743996678,
        "timestamp": "2025-12-21T14:40:48.303050+00:00",
        "meta_object_name": "IRIDIUM 33 DEB",
        "meta_object_id": "1997-051P",
        "meta_epoch": "2025-12-21T05:21:01.511424",
        "meta_mean_motion": 14.38249202,
        "meta_eccentricity": 0.00153108,
        "meta_inclination": 86.4033,
        "meta_ra_of_asc_node": 77.2134,
        "meta_arg_of_pericenter": 163.1939,
        "meta_mean_anomaly": 254.0485,
        "meta_ephemeris_type": 0,
        "meta_classification_type": "U",
        "meta_norad_cat_id": 33776,
        "meta_element_set_no": 999,
        "meta_rev_at_epoch": 88204,
        "meta_bstar": 0.00022734262,
        "meta_mean_motion_dot": 7.11e-06,
        "meta_mean_motion_ddot": 0,
        "tle_line1": "1 33776U 97051P   25355.22293416  .00000711  00000+0  22734-3 0  9996",
        "tle_line2": "2 33776  86.4033  77.2134 0015310 163.1939 254.0485 14.38249202882043"
      },
      "geometry": {
        "type": "Point",
        "coordinates": [
          -30.051160035208696,
          -86.23495629746043
        ]
      }
    },
    {
      "type": "Feature",
      "properties": {
        "norad_id": 33777,
        "name": "IRIDIUM 33 DEB",
        "group": "iridium-33-debris",
        "lat": -71.15849310198219,
        "lon": -137.95674338721136,
        "alt_km": 711.4254689286918,
        "timestamp": "2025-12-21T14:40:48.303063+00:00",
        "meta_object_name": "IRIDIUM 33 DEB",
        "meta_object_id": "1997-051Q",
        "meta_epoch": "2025-12-21T03:37:46.424928",
        "meta_mean_motion": 14.55666378,
        "meta_eccentricity": 0.00058533,
        "meta_inclination": 86.3774,
        "meta_ra_of_asc_node": 31.5442,
        "meta_arg_of_pericenter": 212.4979,
        "meta_mean_anomaly": 147.5869,
        "meta_ephemeris_type": 0,
        "meta_classification_type": "U",
        "meta_norad_cat_id": 33777,
        "meta_element_set_no": 999,
        "meta_rev_at_epoch": 88656,
        "meta_bstar": 0.00051926431,
        "meta_mean_motion_dot": 2.288e-05,
        "meta_mean_motion_ddot": 0,
        "tle_line1": "1 33777U 97051Q   25355.15123177  .00002288  00000+0  51926-3 0  9991",
        "tle_line2": "2 33777  86.3774  31.5442 0005853 212.4979 147.5869 14.55666378886562"
      },
      "geometry": {
        "type": "Point",
        "coordinates": [
          -137.95674338721136,
          -71.15849310198219
        ]
      }
    },
    {
      "type": "Feature",
      "properties": {
        "norad_id": 33850,
        "name": "IRIDIUM 33 DEB",
        "group": "iridium-33-debris",
        "lat": 35.04208963362948,
        "lon": -156.20755128097508,
        "alt_km": 739.9860694283179,
        "timestamp": "2025-12-21T14:40:48.303076+00:00",
        "meta_object_name": "IRIDIUM 33 DEB",
        "meta_object_id": "1997-051T",
        "meta_epoch": "2025-12-20T20:29:38.135040",
        "meta_mean_motion": 14.42163451,
        "meta_eccentricity": 0.00130082,
        "meta_inclination": 86.3409,
        "meta_ra_of_asc_node": 26.6904,
        "meta_arg_of_pericenter": 136.6945,
        "meta_mean_anomaly": 36.4511,
        "meta_ephemeris_type": 0,
        "meta_classification_type": "U",
        "meta_norad_cat_id": 33850,
        "meta_element_set_no": 999,
        "meta_rev_at_epoch": 88269,
        "meta_bstar": 0.00025829804,
        "meta_mean_motion_dot": 8.7e-06,
        "meta_mean_motion_ddot": 0,
        "tle_line1": "1 33850U 97051T   25354.85391360  .00000870  00000+0  25830-3 0  9990",
        "tle_line2": "2 33850  86.3409  26.6904 0013008 136.6945  36.4511 14.42163451882698"
      },
      "geometry": {
        "type": "Point",
        "coordinates": [
          -156.20755128097508,
          35.04208963362948
        ]
      }
    },
    {
      "type": "Feature",
      "properties": {
        "norad_id": 33853,
        "name": "IRIDIUM 33 DEB",
        "group": "iridium-33-debris",
        "lat": -55.22308273145086,
        "lon": 171.7037943573813,
        "alt_km": 768.8357343142015,
        "timestamp": "2025-12-21T14:40:48.303090+00:00",
        "meta_object_name": "IRIDIUM 33 DEB",
        "meta_object_id": "1997-051W",
        "meta_epoch": "2025-12-20T22:14:35.888928",
        "meta_mean_motion": 13.9910315,
        "meta_eccentricity": 0.0207332,
        "meta_inclination": 85.9999,
        "meta_ra_of_asc_node": 346.2208,
        "meta_arg_of_pericenter": 210.5493,
        "meta_mean_anomaly": 176.3282,
        "meta_ephemeris_type": 0,
        "meta_classification_type": "U",
        "meta_norad_cat_id": 33853,
        "meta_element_set_no": 999,
        "meta_rev_at_epoch": 85460,
        "meta_bstar": 0.0010168,
        "meta_mean_motion_dot": 1.786e-05,
        "meta_mean_motion_ddot": 0,
        "tle_line1": "1 33853U 97051W   25354.92680427  .00001786  00000+0  10168-2 0  9990",
        "tle_line2": "2 33853  85.9999 346.2208 0207332 210.5493 176.3282 13.99103150854603"
      },
      "geometry": {
        "type": "Point",
        "coordinates": [
          171.7037943573813,
          -55.22308273145086
        ]
      }
    }
  ]
}